CZ-4B R/B               
1 28059U 03049C   18041.32135424 -.00000018  00000-0  77556-5 0  9993
2 28059  98.5353 296.6171 0049092 240.1380 230.5693 14.52516907758247
CZ-2C R/B               
1 28222U 04012C   18041.44317809  .00000664  00000-0  44217-4 0  9991
2 28222  97.5588 358.9568 0049615  88.9450  24.8993 15.09587950756555
SL-16 R/B               
1 28353U 04021B   18040.95074257  .00000057  00000-0  54895-4 0  9997
2 28353  71.0022 299.8303 0006196 219.6081 140.4589 14.14210525705769
CZ-2C R/B               
1 28480U 04046B   18040.89475087 -.00000019  00000-0  86093-5 0  9999
2 28480  98.1862 126.7153 0140966 242.7894 231.7030 14.25665204688109
ARIANE 5 R/B            
1 28499U 04049H   18041.26086062  .00000028  00000-0  10800-4 0  9996
2 28499  98.0639 130.4890 0092770 165.9767 257.7162 14.79879557709200
CZ-2D R/B               
1 28738U 05024B   18041.55731363  .00000359  00000-0  24976-4 0  9995
2 28738  97.4701  78.4025 0010578 263.1964  96.8063 15.11439463691810
SUZAKU (ASTRO-EII)      
1 28773U 05025A   18040.47309568  .00000908  00000-0  41268-4 0  9996
2 28773  31.3816 197.0247 0004676 213.1752 146.8602 15.16349154693414
ALOS (DAICHI)           
1 28931U 06002A   18041.10810163  .00000095  00000-0  27445-4 0  9995
2 28931  97.8266  61.3232 0000969  52.6484 307.4812 14.62455819642230
H-2A R/B                
1 28932U 06002B   18041.46009466  .00000414  00000-0  44787-4 0  9994
2 28932  98.2220 339.1276 0088261 250.4984 230.1987 14.91627244653326
AKARI (ASTRO-F)         
1 28939U 06005A   18040.79897330  .00001744  00000-0  53638-4 0  9996
2 28939  98.2268 272.5680 0104477  81.3975 279.9084 15.30181445649419
RESURS-DK 1             
1 29228U 06021A   18041.55547337  .00000104  00000-0  15295-4 0  9996
2 29228  69.9340 211.5589 0006574 310.1284  49.9300 15.02281503643890
GENESIS 1               
1 29252U 06029A   18041.53326107  .00000097  00000-0  15253-4 0  9994
2 29252  64.5035 226.8368 0037318 303.0890  56.6651 15.17178001637988
CZ-4B R/B               
1 29507U 06046C   18041.52802942  .00000029  00000-0  72458-5 0  9997
2 29507  97.7916  54.2494 0052671 164.9078 195.3732 15.00269603616777
CZ-2C R/B               
1 31114U 07010B   18041.55735813 -.00000046  00000-0 -24307-5 0  9992
2 31114  98.3786 296.4018 0058680 243.0207 116.4970 14.19263867561320
COSMO-SKYMED 1          
1 31598U 07023A   18041.48581139  .00000409  00000-0  57940-4 0  9993
2 31598  97.8889 226.7979 0001363  88.6781 271.4611 14.82151290577745
GENESIS 2               
1 31789U 07028A   18040.90243179  .00000277  00000-0  24429-4 0  9994
2 31789  64.5038 267.7094 0006263 260.7459  99.2955 15.16429466584955
COSMOS 2428             
1 31792U 07029A   18041.45757572  .00000341  00000-0  21066-3 0  9992
2 31792  70.9467 272.1616 0011323 274.1305  85.8521 14.12445984547719
SL-16 R/B               
1 31793U 07029B   18040.93247248 -.00000031  00000-0  89713-5 0  9991
2 31793  70.9725 249.7706 0001960 253.7861 202.4243 14.14390082548295
KORONAS-FOTON           
1 33504U 09003A   18040.94938103  .00000820  00000-0  41975-4 0  9997
2 33504  82.4442 356.6677 0019752  13.1683 347.0060 15.15079519497471
TIANGONG 1              
1 37820U 11053A   18041.53025297  .00090017  11894-4  13937-3 0  9997
2 37820  42.7504 158.9975 0018446 356.3475  63.7935 16.03350099365883
H-2A R/B                
1 38341U 12025E   18041.24285470  .00000144  00000-0  24377-4 0  9991
2 38341  98.4197 136.3924 0056996 112.1895 248.5379 14.83708181310170
CUSAT 2 & FALCON 9 R/B  
1 39271U 13055G   18040.67722836  .00006145  00000-0  15631-3 0  9995
2 39271  80.9677 105.3155 0620898 217.9702 137.6156 14.40081863226770
ALOS-2                  
1 39766U 14029A   18041.38552856  .00000095  00000-0  19552-4 0  9993
2 39766  97.9194 140.2977 0001641  84.5260 275.6141 14.79473116200820
SL-27 R/B               
1 40354U 14084B   18041.15808774  .00000847  00000-0  22829-4 0  9993
2 40354  74.7397   1.9336 0040768 264.3519  95.3043 15.38820485176453
ASTRO-H (HITOMI)        
1 41337U 16012A   18041.41313865  .00000235  00000-0  12202-4 0  9994
2 41337  31.0067  49.0849 0012501 233.5718 126.3765 14.98426560108687
TIANGONG-2              
1 41765U 16057A   18041.42070759  .00003740  00000-0  48965-4 0  9990
2 41765  42.7850  18.4602 0002067  90.6163  45.9425 15.60323192 80179
SHENZHOU-11 MODULE      
1 41868U 16061G   18040.38165345  .00006978  00000-0  59891-4 0  9995
2 41868  42.7961   5.3433 0003001 304.3627 191.1661 15.69960446 70175
HUMANITY STAR           
1 43168U 18010F   18041.28588268  .00268057  18261-4  18128-2 0  9995
2 43168  82.9152 119.3959 0143903 148.3081 212.6897 15.61961427  3148
